OPS 6582 (TRANSIT 5B-5) 
1 00965U 64083D   25118.78415874  .00000087  00000+0  10886-3 0  9992
2 00965  90.0625 200.0592 0042908  51.8572  95.8945 13.56961991987401
LES-1                   
1 01002U 65008C   25118.92748256  .00000012  00000+0  48315-3 0  9998
2 01002  32.1467 306.0761 0015502 218.5312 141.4079  9.88354564175209
SOLRAD 7B               
1 01291U 65016D   25118.79215709  .00000070  00000+0  90668-4 0  9997
2 01291  70.0810  37.2300 0023213 301.2015  58.6815 13.94906529 58913
SECOR 4 (EGRS 4)        
1 01315U 65027B   25118.93110942  .00000106  00000+0  36261-3 0  9993
2 01315  90.2465   6.2811 0030438 199.1730 291.6269 12.92656754833404
TIROS 10                
1 01430U 65051A   25118.79345022  .00000432  00000+0  14461-3 0  9991
2 01430  98.4620 236.0081 0054433 242.9536 116.6092 14.41386325136214
ALOUETTE 2              
1 01804U 65098A   25118.83429265  .00000495  00000+0  16204-3 0  9990
2 01804  79.7978 269.0037 1332051 352.3482   5.8914 12.27830773628419
OV3-3                   
1 02389U 66070A   25118.87193929  .00020671  00000+0  96930-3 0  9991
2 02389  81.3284 333.1440 1060687 143.0955 224.8198 13.34026056543504
SECOR 7 (EGRS 7)        
1 02411U 66077B   25116.84805723 -.00000020  00000+0 -10646-1 0  9997
2 02411  90.3296 272.5716 0013685 117.6999 242.5242  8.59615764841605
ERS 15                  
1 02412U 66077C   25117.86851021  .00000002  00000+0  00000+0 0  9992
2 02412  90.3297 272.3782 0008212 124.4065 235.7563  8.59078280354793
ISIS 1                  
1 03669U 69009A   25118.60455251  .00000202  00000+0  13775-3 0  9992
2 03669  88.4570 189.6570 1708162   5.2962 356.3822 11.30261628312930
SECOR 13 (EGRS 13)      
1 03891U 69037B   25118.94052910  .00000003  00000+0  80594-4 0  9995
2 03891  99.7105   2.1394 0039355 186.4921 189.7747 13.42955188746151
ATS 5                   
1 04068U 69069A   25118.71667157  .00000108  00000+0  00000+0 0  9992
2 04068   1.0108 258.3343 0004657  18.1217  62.8840  0.99490216 42206
OPS 7613 (P/L 4)        
1 04237U 69082E   25118.50403914  .00000098  00000+0  11002-3 0  9997
2 04237  70.0142 269.6921 0022460 306.3198 111.8673 13.95908425828439
OPS 7613 (P/L 1)        
1 04256U 69082B   25118.43932703  .00000214  00000+0  18417-3 0  9990
2 04256  70.0073 135.8870 0022088 250.2983 109.5741 13.99041978832457
SHINSEI (MS-F2)         
1 05485U 71080A   25118.85297525  .00000020  00000+0 -17924-4 0  9997
2 05485  32.0540  95.9265 0639974 179.5490 180.5772 12.74233502496386
PROSPERO (BLACK ARROW)  
1 05580U 71093A   25118.92728921  .00001223  00000+0  26323-3 0  9991
2 05580  82.0360 294.0559 0506019 333.9986  23.6526 14.00263846690525
OPS 7898 (P/L 2)        
1 05680U 71110C   25118.58566760  .00000029  00000+0  82896-4 0  9996
2 05680  69.9873 138.5075 0009429 314.9732  45.0597 13.74712817291233
NOAA 2 (ITOS-D)         
1 06235U 72082A   25118.96285478 -.00000033  00000+0  83223-4 0  9999
2 06235 102.0232 127.6876 0003719 236.0238 151.6171 12.53199457403060
OSCAR 7 (AO-7)          
1 07530U 74089B   25118.98315863 -.00000043  00000+0  19207-4 0  9993
2 07530 101.9948 122.8030 0012098 199.8463 185.7233 12.53688737308612
TIROS N                 
1 11060U 78096A   25118.60755790  .00000338  00000+0  18146-3 0  9990
2 11060  98.4915 152.6357 0010506  10.6156 349.5240 14.19172762619942
PHASE 3B (AO-10)        
1 14129U 83058B   25117.14798991 -.00000171  00000+0  00000+0 0  9993
2 14129  26.8687 289.4728 6054338   0.5217 359.8058  2.05871395286914
HILAT                   
1 14154U 83063A   25118.26138119  .00000807  00000+0  25768-3 0  9998
2 14154  82.0264 186.6866 0041043 107.6776 313.4639 14.38299968187932
UOSAT 2 (UO-11)         
1 14781U 84021B   25118.87860111  .00002722  00000+0  29321-3 0  9997
2 14781  97.7512  86.0854 0009388 110.0458 250.1771 14.89243006195434
NOAA 9                  
1 15427U 84123A   25118.80773189  .00000277  00000+0  16119-3 0  9993
2 15427  99.1240 130.2102 0015740  83.9234  89.3328 14.16908487 84734
GEOSAT                  
1 15595U 85021A   25118.71861348  .00000529  00000+0  21212-3 0  9992
2 15595 108.0585 298.8423 0001364 269.2632  90.8353 14.39647849103113
EUTELSAT 1-F4 (ECS 4)   
1 18351U 87078B   25118.91671301 -.00000274  00000+0  00000+0 0  9995
2 18351  14.1248 345.0329 0010996  36.7454 318.4484  0.98691428122666
PACSAT (AO-16)          
1 20439U 90005D   25118.83014611  .00000309  00000+0  12796-3 0  9992
2 20439  98.8915 138.8133 0010780  13.1569 164.8079 14.33752495842550
LUSAT (LO-19)           
1 20442U 90005G   25118.93901051  .00000333  00000+0  13610-3 0  9993
2 20442  98.8995 123.9464 0011230 346.2329  13.8547 14.33935817843026
IRS-1B                  
1 21688U 91061A   25118.96157313  .00000020  00000+0  47126-4 0  9999
2 21688  99.3985 111.8248 0024962  50.6534 335.0460 13.97783534610627
COSMOS 2197             
1 22034U 92042A   25118.47631875  .00000047  00000+0  19800-3 0  9997
2 22034  82.5909 133.9626 0013644 134.0540 337.4110 12.64234840512888
PEGASUS R/B             
1 22491U 93009C   25118.54954558  .00002052  00000+0  39755-3 0  9991
2 22491  24.9764 177.5395 0044412 318.1250  41.5869 14.57109405709076
EYESAT A (AO-27)        
1 22825U 93061C   25118.60872717  .00000245  00000+0  11065-3 0  9999
2 22825  98.7399 179.9484 0007536 230.7748 129.2765 14.30783007647710
ITAMSAT (IO-26)         
1 22826U 93061D   25118.63962565  .00000278  00000+0  12231-3 0  9996
2 22826  98.7345 179.8596 0008304 213.9242 146.1410 14.31194352648010
RADIO ROSTO (RS-15)     
1 23439U 94085A   25118.93741846 -.00000054  00000+0 -32121-3 0  9998
2 23439  64.8158 253.1460 0145705  82.5217 279.2234 11.27581471249194
JAS-2 (FO-29)           
1 24278U 96046B   25118.46204864  .00000036  00000+0  69770-4 0  9990
2 24278  98.5800  17.8907 0350938  91.7090 272.4272 13.53245254417070
FORTE                   
1 24920U 97047A   25118.78664474  .00000563  00000+0  25087-3 0  9995
2 24920  69.9536 229.8343 0019967 128.0317 232.2611 14.27684075439537
NOAA 15                 
1 25338U 98030A   25118.81041871  .00000372  00000+0  17039-3 0  9992
2 25338  98.5388 144.9407 0011404 119.1277 241.1047 14.26953406402196
TECHSAT 1B (GO-32)      
1 25397U 98043D   25118.89377733  .00000198  00000+0  10563-3 0  9999
2 25397  98.9681  97.1492 0001241  19.3638 340.7587 14.24302629392358
ISS (ZARYA)             
1 25544U 98067A   25118.69904601  .00018272  00000+0  33462-3 0  9992
2 25544  51.6381 192.1629 0002672  81.2921  56.6448 15.49375691507483
ORSTED                  
1 25635U 99008B   25118.92552409  .00001648  00000+0  37725-3 0  9995
2 25635  96.4459 116.4943 0134527  75.5200 286.0882 14.51048905381877
LANDSAT 7               
1 25682U 99020A   25118.90463260  .00001006  00000+0  20322-3 0  9998
2 25682  97.8653 136.6148 0001377  79.1719  39.6313 14.63375780385245
ORBCOMM FM36            
1 25984U 99065E   25118.94200420  .00002001  00000+0  70203-3 0  9992
2 25984  45.0395 324.2478 0003366  62.0338 298.0851 14.37992254327333
DMSP 5D-3 F15 (USA 147) 
1 25991U 99067A   25118.95443470  .00000304  00000+0  17292-3 0  9990
2 25991  99.0424 146.2451 0010984 100.1278  19.3485 14.17359134311968
OPAL (OO-38)            
1 26063U 00004C   25118.86357817  .00000305  00000+0  12006-3 0  9992
2 26063 100.2201 334.0939 0036464 125.2321 235.2282 14.37758142323740
IMAGE                   
1 26113U 00017A   25117.64346669  .00000773  00000+0  15545-1 0  9998
2 26113  93.8742 308.9961 7665158 337.5172   1.9609  1.68660919154494
CLUSTER II-FM7 (SAMBA)  
1 26410U 00041A   25120.20693413  .00000698  00000+0  00000+0 0  9997
2 26410 143.5901   9.1933 8276905 224.4674   0.7114  0.44836358 18451
CLUSTER II-FM5 (RUMBA)  
1 26463U 00045A   25116.56234487  .00004323  00000+0  00000+0 0  9994
2 26463 153.0648  66.8878 9048760 284.8283   2.7667  0.42905914 18340
CLUSTER II-FM8 (TANGO)  
1 26464U 00045B   25119.15218878  .00000743  00000+0  00000+0 0  9991
2 26464 143.8251   9.4830 8279524 224.6314   0.6886  0.44417233 18455
MEGSAT-1                
1 26546U 00057B   25118.69323179  .00005450  00000+0  42564-3 0  9999
2 26546  64.5517 313.7215 0014010 306.7787  53.2042 15.02047068335335
PHASE 3D (AO-40)        
1 26609U 00072B   25118.06745155 -.00000127  00000+0  00000+0 0  9991
2 26609   9.3750  49.0498 7973450  53.0918 355.4487  1.25590141112293
ODIN                    
1 26702U 01007A   25118.51285200  .00023908  00000+0  63540-3 0  9997
2 26702  97.4499 141.2922 0004809 218.3320 141.7584 15.38241915325113
OMNI-M1                 
1 26857U 01026A   25115.36137584 -.00000043  00000+0  00000+0 0  9994
2 26857  45.0091 341.3870 0015043 317.5141  42.4124  3.92401738344858
PCSAT (NO-44)           
1 26931U 01043C   25118.73177961  .00000434  00000+0  19359-3 0  9997
2 26931  67.0509 236.0354 0005653 272.0234  88.0221 14.31711029231110
PROBA-1                 
1 26958U 01049B   25118.94438663  .00004375  00000+0  30111-3 0  9991
2 26958  97.9469 109.0611 0059583  81.8632 278.9346 15.04991140281264
SPOT 5                  
1 27421U 02021A   25118.42045422  .00001020  00000+0  22464-3 0  9994
2 27421  98.0396 169.4178 0131801 125.0546 236.3099 14.54237748202557
FENGYUN 1D              
1 27431U 02024B   25118.92997065  .00000103  00000+0  83769-4 0  9999
2 27431  99.0089 164.8084 0014786 330.9839  29.0508 14.10136993181096
SAUDISAT 1C (SO-50)     
1 27607U 02058C   25118.90547888  .00002377  00000+0  31408-3 0  9990
2 27607  64.5548 329.1641 0051339 343.8403  16.1062 14.81499953203057
CORIOLIS                
1 27640U 03001A   25118.76810884  .00000265  00000+0  14565-3 0  9998
2 27640  98.7142 127.0209 0013431 330.9167  29.1260 14.19774387155411
CUTE-1 (CO-55)          
1 27844U 03031E   25118.73127007  .00000674  00000+0  31289-3 0  9998
2 27844  98.6776 127.5432 0008693 314.6534  45.3935 14.23958667132686
